$$SOE
2460714.500000000, A.D. 2025-Feb-08 00:00:00.0000, -6.617219955912169E+09, -9.010032809286300E+08, 3.741511014737588E+08,
2460721.500000000, A.D. 2025-Feb-15 00:00:00.0000, -6.616868929316730E+09, -9.036193284779016E+08, 3.742448271607174E+08,
2460728.500000000, A.D. 2025-Feb-22 00:00:00.0000, -6.616516837145399E+09, -9.062353190104392E+08, 3.743384927195542E+08,
2460735.500000000, A.D. 2025-Mar-01 00:00:00.0000, -6.616163677178204E+09, -9.088512517085706E+08, 3.744320979651877E+08,
2460742.500000000, A.D. 2025-Mar-08 00:00:00.0000, -6.615809446113362E+09, -9.114671258701117E+08, 3.745256425615811E+08,
2460749.500000000, A.D. 2025-Mar-15 00:00:00.0000, -6.615454139589520E+09, -9.140829390728716E+08, 3.746191261772721E+08,
2460756.500000000, A.D. 2025-Mar-22 00:00:00.0000, -6.615097754416142E+09, -9.166986867520804E+08, 3.747125487292880E+08,
2460763.500000000, A.D. 2025-Mar-29 00:00:00.0000, -6.614740289434583E+09, -9.193143640325311E+08, 3.748059103182805E+08,
2460770.500000000, A.D. 2025-Apr-05 00:00:00.0000, -6.614381744684583E+09, -9.219299666769902E+08, 3.748992110812405E+08,
2460777.500000000, A.D. 2025-Apr-12 00:00:00.0000, -6.614022120802143E+09, -9.245454910466877E+08, 3.749924511466421E+08,
2460784.500000000, A.D. 2025-Apr-19 00:00:00.0000, -6.613661418835970E+09, -9.271609339549582E+08, 3.750856306368762E+08,
2460791.500000000, A.D. 2025-Apr-26 00:00:00.0000, -6.613299640210846E+09, -9.297762926167194E+08, 3.751787496761978E+08,
2460798.500000000, A.D. 2025-May-03 00:00:00.0000, -6.612936786724223E+09, -9.323915646742393E+08, 3.752718083951072E+08,
2460805.500000000, A.D. 2025-May-10 00:00:00.0000, -6.612572860547479E+09, -9.350067482901700E+08, 3.753648069290696E+08,
2460812.500000000, A.D. 2025-May-17 00:00:00.0000, -6.612207864195081E+09, -9.376218423485570E+08, 3.754577454047157E+08,
2460819.500000000, A.D. 2025-May-24 00:00:00.0000, -6.611841800287756E+09, -9.402368468180131E+08, 3.755506238930319E+08,
2460826.500000000, A.D. 2025-May-31 00:00:00.0000, -6.611474670691867E+09, -9.428517629658182E+08, 3.756434423165799E+08,
2460833.500000000, A.D. 2025-Jun-07 00:00:00.0000, -6.611106475435974E+09, -9.454665922179403E+08, 3.757362004459599E+08,
2460840.500000000, A.D. 2025-Jun-14 00:00:00.0000, -6.610737213769096E+09, -9.480813343316194E+08, 3.758288981479014E+08,
2460847.500000000, A.D. 2025-Jun-21 00:00:00.0000, -6.610366886143926E+09, -9.506959881516988E+08, 3.759215355060611E+08,
2460854.500000000, A.D. 2025-Jun-28 00:00:00.0000, -6.609995493996794E+09, -9.533105531858476E+08, 3.760141126718521E+08,
2460861.500000000, A.D. 2025-Jul-05 00:00:00.0000, -6.609623038841130E+09, -9.559250298420454E+08, 3.761066297606977E+08,
2460868.500000000, A.D. 2025-Jul-12 00:00:00.0000, -6.609249521865366E+09, -9.585394191335146E+08, 3.761990868371904E+08,
2460875.500000000, A.D. 2025-Jul-19 00:00:00.0000, -6.608874943845766E+09, -9.611537224260230E+08, 3.762914839248430E+08,
2460882.500000000, A.D. 2025-Jul-26 00:00:00.0000, -6.608499305164222E+09, -9.637679412839788E+08, 3.763838210166377E+08,
2460889.500000000, A.D. 2025-Aug-02 00:00:00.0000, -6.608122605865634E+09, -9.663820773935040E+08, 3.764760980822567E+08,
2460896.500000000, A.D. 2025-Aug-09 00:00:00.0000, -6.607744845731466E+09, -9.689961325768943E+08, 3.765683150687895E+08,
2460903.500000000, A.D. 2025-Aug-16 00:00:00.0000, -6.607366024292532E+09, -9.716101089614198E+08, 3.766604718828709E+08,
2460910.500000000, A.D. 2025-Aug-23 00:00:00.0000, -6.606986140488358E+09, -9.742240092857101E+08, 3.767525683289641E+08,
2460917.500000000, A.D. 2025-Aug-30 00:00:00.0000, -6.606605191644233E+09, -9.768378366294378E+08, 3.768446040322041E+08,
2460924.500000000, A.D. 2025-Sep-06 00:00:00.0000, -6.606223173184051E+09, -9.794515925658443E+08, 3.769365785578687E+08,
2460931.500000000, A.D. 2025-Sep-13 00:00:00.0000, -6.605840080749674E+09, -9.820652762198211E+08, 3.770284916780663E+08,
2460938.500000000, A.D. 2025-Sep-20 00:00:00.0000, -6.605455911453644E+09, -9.846788858758237E+08, 3.771203433512805E+08,
2460945.500000000, A.D. 2025-Sep-27 00:00:00.0000, -6.605070663206635E+09, -9.872924200238813E+08, 3.772121335721870E+08,
2460952.500000000, A.D. 2025-Oct-04 00:00:00.0000, -6.604684334136371E+09, -9.899058773043056E+08, 3.773038623209516E+08,
2460959.500000000, A.D. 2025-Oct-11 00:00:00.0000, -6.604296922471669E+09, -9.925192562939072E+08, 3.773955295693264E+08,
2460966.500000000, A.D. 2025-Oct-18 00:00:00.0000, -6.603908426607910E+09, -9.951325554078778E+08, 3.774871352951379E+08,
2460973.500000000, A.D. 2025-Oct-25 00:00:00.0000, -6.603518845214441E+09, -9.977457729060006E+08, 3.775786794932379E+08,
2460980.500000000, A.D. 2025-Nov-01 00:00:00.0000, -6.603128177344477E+09, -1.000358906987298E+09, 3.776701621804609E+08,
2460987.500000000, A.D. 2025-Nov-08 00:00:00.0000, -6.602736422513016E+09, -1.002971956004078E+09, 3.777615833886991E+08,
2460994.500000000, A.D. 2025-Nov-15 00:00:00.0000, -6.602343580594940E+09, -1.005584918853468E+09, 3.778529431275510E+08,
2461001.500000000, A.D. 2025-Nov-22 00:00:00.0000, -6.601949651140675E+09, -1.008197795325870E+09, 3.779442412973798E+08,
2461008.500000000, A.D. 2025-Nov-29 00:00:00.0000, -6.601554632262669E+09, -1.010810585274919E+09, 3.780354776593755E+08,
2461015.500000000, A.D. 2025-Dec-06 00:00:00.0000, -6.601158521370183E+09, -1.013423286744537E+09, 3.781266520601916E+08,
2461022.500000000, A.D. 2025-Dec-13 00:00:00.0000, -6.600761317318754E+09, -1.016035896423090E+09, 3.782177645957878E+08,
2461029.500000000, A.D. 2025-Dec-20 00:00:00.0000, -6.600363020481187E+09, -1.018648411401094E+09, 3.783088154775796E+08,
2461036.500000000, A.D. 2025-Dec-27 00:00:00.0000, -6.599963631813909E+09, -1.021260829640780E+09, 3.783998049110801E+08,
2461043.500000000, A.D. 2026-Jan-03 00:00:00.0000, -6.599563152377870E+09, -1.023873149772493E+09, 3.784907330705536E+08,
2461050.500000000, A.D. 2026-Jan-10 00:00:00.0000, -6.599161583204274E+09, -1.026485370896160E+09, 3.785816001041594E+08,
2461057.500000000, A.D. 2026-Jan-17 00:00:00.0000, -6.598758925272553E+09, -1.029097492478580E+09, 3.786724061408418E+08,
2461064.500000000, A.D. 2026-Jan-24 00:00:00.0000, -6.598355179522639E+09, -1.031709514322976E+09, 3.787631512937626E+08,
2461071.500000000, A.D. 2026-Jan-31 00:00:00.0000, -6.597950346878092E+09, -1.034321436617294E+09, 3.788538356576232E+08,
2461078.500000000, A.D. 2026-Feb-07 00:00:00.0000, -6.597544428218558E+09, -1.036933260117667E+09, 3.789444592896626E+08,
2461085.500000000, A.D. 2026-Feb-14 00:00:00.0000, -6.597137424048522E+09, -1.039544986481455E+09, 3.790350221499772E+08,
2461092.500000000, A.D. 2026-Feb-21 00:00:00.0000, -6.596729333474745E+09, -1.042156618172042E+09, 3.791255240128775E+08,
2461099.500000000, A.D. 2026-Feb-28 00:00:00.0000, -6.596320153577278E+09, -1.044768156781294E+09, 3.792159645431387E+08,
2461106.500000000, A.D. 2026-Mar-07 00:00:00.0000, -6.595909881232578E+09, -1.047379601719300E+09, 3.793063435666784E+08,
2461113.500000000, A.D. 2026-Mar-14 00:00:00.0000, -6.595498514613003E+09, -1.049990951603984E+09, 3.793966610905221E+08,
2461120.500000000, A.D. 2026-Mar-21 00:00:00.0000, -6.595086052579836E+09, -1.052602205452516E+09, 3.794869171454641E+08,
2461127.500000000, A.D. 2026-Mar-28 00:00:00.0000, -6.594672493979205E+09, -1.055213362645859E+09, 3.795771117199171E+08,
2461134.500000000, A.D. 2026-Apr-04 00:00:00.0000, -6.594257837444639E+09, -1.057824422632072E+09, 3.796672447615559E+08,
2461141.500000000, A.D. 2026-Apr-11 00:00:00.0000, -6.593842081432322E+09, -1.060435384728356E+09, 3.797573161924078E+08,
2461148.500000000, A.D. 2026-Apr-18 00:00:00.0000, -6.593425224329652E+09, -1.063046248028532E+09, 3.798473259224259E+08,
2461155.500000000, A.D. 2026-Apr-25 00:00:00.0000, -6.593007264591034E+09, -1.065657011401279E+09, 3.799372738587521E+08,
2461162.500000000, A.D. 2026-May-02 00:00:00.0000, -6.592588200869885E+09, -1.068267673608741E+09, 3.800271599056216E+08,
2461169.500000000, A.D. 2026-May-09 00:00:00.0000, -6.592168032021873E+09, -1.070878233611735E+09, 3.801169839382367E+08,
2461176.500000000, A.D. 2026-May-16 00:00:00.0000, -6.591746756601036E+09, -1.073488690923184E+09, 3.802067457273753E+08,
2461183.500000000, A.D. 2026-May-23 00:00:00.0000, -6.591324371796715E+09, -1.076099044987385E+09, 3.802964448936040E+08,
2461190.500000000, A.D. 2026-May-30 00:00:00.0000, -6.590900873889496E+09, -1.078709293265494E+09, 3.803860811078518E+08,
2461197.500000000, A.D. 2026-Jun-06 00:00:00.0000, -6.590476260543383E+09, -1.081319431300796E+09, 3.804756542998490E+08,
2461204.500000000, A.D. 2026-Jun-13 00:00:00.0000, -6.590050531268174E+09, -1.083929454564770E+09, 3.805651645543236E+08,
2461211.500000000, A.D. 2026-Jun-20 00:00:00.0000, -6.589623686553090E+09, -1.086539359157825E+09, 3.806546119798380E+08,
2461218.500000000, A.D. 2026-Jun-27 00:00:00.0000, -6.589195727369965E+09, -1.089149141704517E+09, 3.807439966780144E+08,
2461225.500000000, A.D. 2026-Jul-04 00:00:00.0000, -6.588766655046150E+09, -1.091758799218119E+09, 3.808333187495571E+08,
2461232.500000000, A.D. 2026-Jul-11 00:00:00.0000, -6.588336471253208E+09, -1.094368329066401E+09, 3.809225783027260E+08,
2461239.500000000, A.D. 2026-Jul-18 00:00:00.0000, -6.587905178018668E+09, -1.096977729012816E+09, 3.810117754575949E+08,
2461246.500000000, A.D. 2026-Jul-25 00:00:00.0000, -6.587472777736464E+09, -1.099586997330308E+09, 3.811009103438476E+08,
2461253.500000000, A.D. 2026-Aug-01 00:00:00.0000, -6.587039273127938E+09, -1.102196133035809E+09, 3.811899830835713E+08,
2461260.500000000, A.D. 2026-Aug-08 00:00:00.0000, -6.586604666938605E+09, -1.104805136281193E+09, 3.812789937362641E+08,
2461267.500000000, A.D. 2026-Aug-15 00:00:00.0000, -6.586168960955689E+09, -1.107414008450200E+09, 3.813679422046978E+08,
2461274.500000000, A.D. 2026-Aug-22 00:00:00.0000, -6.585732155107596E+09, -1.110022750739879E+09, 3.814568282711902E+08,
$$EOE